251P/LINEAR,e,23.3864,219.3489,31.2668,3.512597,0.1497137,0.50454146,287.7971,10/19.0/2022,2000,g 16.5,2.0
# From MPEC 2021-S45
252P/LINEAR,e,10.4126,190.9191,343.3810,3.050697,0.1849718,0.67146352,85.9823,10/19.0/2022,2000,g 17.5,4.0
# From MPEC 2020-FB5
253P/PANSTARRS,e,4.9434,146.8815,230.6950,3.464809,0.1528217,0.41450498,248.0119,10/19.0/2022,2000,g 14.5,4.0
# From MPEC 2022-K19
254P/McNaught,e,32.5682,129.1827,219.6348,4.615147,0.0994090,0.31972087,74.4286,10/19.0/2022,2000,g 11.0,4.0
# From MPEC 2021-UA9
255P/Levy,e,13.4109,275.6648,186.0116,2.941998,0.1953172,0.71151162,8.1456,10/19.0/2022,2000,g 14.1,4.0
# From MPEC 2022-C56
256P/LINEAR,e,27.6187,81.3349,124.2015,4.639564,0.0986253,0.41799317,345.7703,10/19.0/2022,2000,g 14.0,2.0
# From MPEC 2021-Y10
257P/Catalina,e,20.2199,207.7191,117.7448,3.763830,0.1349768,0.43012733,103.7036,10/19.0/2022,2000,g 11.5,4.0
# From MPEC 2021-U31
258P/PANSTARRS,e,6.7467,126.2390,25.8014,4.394808,0.1069779,0.20842176,91.2877,10/19.0/2022,2000,g 13.0,4.0
# From MPC106349
259P/Garradd,e,15.8948,51.4309,257.5956,2.730296,0.2184688,0.33887626,55.2114,10/19.0/2022,2000,g 15.5,4.0
# From MPEC 2022-O01
260P/McNaught,e,15.0575,349.3377,18.4380,3.623244,0.1429084,0.60935374,162.1013,10/19.0/2022,2000,g 13.5,4.0
# From MPEC 2021-J28
261P/Larson,e,6.0725,291.1225,67.2443,3.490484,0.1511387,0.42334715,183.9944,10/19.0/2022,2000,g 14.0,4.0
# From MPC 82322
262P/McNaught-Russell,e,29.2817,217.8651,171.0497,6.871977,0.0547119,0.81624801,197.2249,10/19.0/2022,2000,g 13.5,4.0
# From MPEC 2022-ST7
263P/Gibbs,e,11.5219,105.5112,35.0371,3.041750,0.1857885,0.59354635,340.7564,10/19.0/2022,2000,g 18.0,4.0
# From MPC114608
264P/Larsen,e,25.3552,220.2198,346.7134,3.885289,0.1286972,0.37623686,150.8571,10/19.0/2022,2000,g 13.0,4.0
# From MPC 79870
265P/LINEAR,e,14.3637,342.9268,33.4763,4.255848,0.1122600,0.64762229,69.2457,10/19.0/2022,2000,g 14.5,4.0
# From MPEC 2021-F20
266P/Christensen,e,3.4270,4.9959,97.6814,3.531779,0.1484957,0.33981445,135.5350,10/19.0/2022,2000,g 14.7,4.0
# From MPC114608
267P/LONEOS,e,6.1429,228.5721,114.2298,3.210885,0.1713037,0.61440004,265.1474,10/19.0/2022,2000,g 19.5,4.0
# From MPC 92277
268P/Bernardi,e,15.7609,126.6081,359.8074,4.575723,0.1006965,0.47741536,280.2245,10/19.0/2022,2000,g 14.0,4.0
# From MPC104795
269P/Jedicke,e,7.0797,241.7405,225.7132,7.069705,0.0524327,0.43138022,154.2238,10/19.0/2022,2000,g 10.0,4.0
# From MPC 88332
270P/Gehrels,e,2.9236,223.0248,209.7660,6.659610,0.0573497,0.46880842,196.0019,10/19.0/2022,2000,g  8.0,4.0
# From MPC 92277
271P/van Houten-Lemmon,e,6.8723,9.3184,36.4042,7.037000,0.0527986,0.39553476,178.4911,10/19.0/2022,2000,g 11.0,4.0
# From MPEC 2022-C56
272P/NEAT,e,18.0732,109.4677,27.8940,4.461140,0.1046009,0.45480846,9.8287,10/19.0/2022,2000,g 16.0,2.0
# From MPC 82723
273P/Pons-Gambart,e,136.7174,320.3964,20.3109,31.96134,0.0054546,0.97431372,0.0000,12/21.0657/2012,2000,g 11.5,4.0
# From MPEC 2022-M21
274P/Tombaugh-Tenagra,e,15.8151,81.3337,38.4708,4.376800,0.1076389,0.43951979,20.8324,10/19.0/2022,2000,g 13.0,4.0
# From MPC 81862
275P/Hermann,e,21.2740,348.7565,173.9744,5.777889,0.0709660,0.71282223,255.4910,10/19.0/2022,2000,g 17.0,4.0
# From MPEC 2022-TA0
276P/Vorobjov,e,14.8106,211.3532,199.5127,5.324375,0.0802234,0.26786295,296.9373,10/19.0/2022,2000,g 11.5,4.0
# From MPEC 2021-F20
277P/LINEAR,e,16.7778,276.3141,152.3264,3.853460,0.1302950,0.50607047,85.6936,10/19.0/2022,2000,g 15.1,4.0
# From MPEC 2021-S45
278P/McNaught,e,6.6969,15.3840,237.6789,3.684501,0.1393593,0.43648590,106.9496,10/19.0/2022,2000,g 14.0,4.0
# From MPEC 2022-K19
279P/LaSagra,e,5.0525,346.2320,5.8636,3.572798,0.1459457,0.39875326,333.3501,10/19.0/2022,2000,g 14.0,4.0
# From MPEC 2022-K19
280P/Larsen,e,11.7728,131.3909,104.7378,4.530206,0.1022180,0.41725815,330.3876,10/19.0/2022,2000,g 12.5,4.0
# From MPEC 2021-W31
281P/MOSS,e,4.7184,87.1803,26.6531,4.876563,0.0915236,0.17267975,350.3384,10/19.0/2022,2000,g 11.0,4.0
# From MPC133426
282P/,e,5.8117,9.2972,217.6198,4.238603,0.1129458,0.18815210,40.6005,10/19.0/2022,2000,g 13.5,2.0
# From MPEC 2022-K19
283P/Spacewatch,e,14.4553,161.1283,22.2236,4.136036,0.1171730,0.48450755,47.5821,10/19.0/2022,2000,g 16.0,2.0
# From MPEC 2022-K19
284P/McNaught,e,11.8612,144.2617,202.4203,3.675968,0.1398448,0.37542139,56.1380,10/19.0/2022,2000,g 13.0,4.0
# From MPEC 2022-TA0
285P/LINEAR,e,25.0382,185.5072,178.4317,4.509154,0.1029346,0.61871339,351.2206,10/19.0/2022,2000,g 15.0,4.0
# From MPEC 2022-TA0
286P/Christensen,e,17.0394,283.9327,24.8839,4.113677,0.1181296,0.42607595,18.8212,10/19.0/2022,2000,g 14.0,4.0
# From MPEC 2022-QD9
287P/Christensen,e,16.3213,139.0436,189.0845,4.163739,0.1160056,0.27120317,329.8499,10/19.0/2022,2000,g 13.5,4.0
# From MPC133426
288P/,e,3.2383,83.1235,280.2075,3.048429,0.1851783,0.20061699,42.8360,10/19.0/2022,2000,g 16.0,2.0
# From MPEC 2022-K19
289P/Blanpain,e,5.8983,68.8849,9.8398,3.045686,0.1854285,0.68591510,191.5212,10/19.0/2022,2000,g 19.0,4.0
# From MPC 95214
290P/Jager,e,20.0443,302.6724,181.8591,6.216610,0.0635878,0.62733000,202.8662,10/19.0/2022,2000,g 10.5,4.0
# From MPEC 2022-TA0
291P/NEAT,e,6.3023,237.7058,173.5426,4.544154,0.1017477,0.43562479,339.9261,10/19.0/2022,2000,g 13.0,4.0
# From MPEC 2022-K19
292P/Li,e,24.2868,90.9336,319.5136,6.102792,0.0653749,0.58942797,207.8861,10/19.0/2022,2000,g 12.5,4.0
# From MPEC 2022-L66
293P/Spacewatch,e,9.0591,78.3981,40.9666,3.641334,0.1418447,0.41835860,94.8782,10/19.0/2022,2000,g 14.5,4.0
# From MPEC 2020-SI8
294P/LINEAR,e,17.9089,311.5357,235.9880,3.186705,0.1732572,0.60323731,181.9760,10/19.0/2022,2000,g 15.5,4.0
# From MPEC 2022-K19
295P/LINEAR,e,21.0740,7.4384,72.8788,5.305334,0.0806557,0.61690140,249.2261,10/19.0/2022,2000,g 12.0,4.0
# From MPEC 2021-N06
296P/Garradd,e,25.2408,263.5635,350.0102,3.492727,0.1509931,0.47878058,114.9784,10/19.0/2022,2000,g 14.0,4.0
# From MPC102956
297P/Beshore,e,10.2945,97.1847,133.6893,3.459022,0.1532054,0.32090341,96.7126,10/19.0/2022,2000,g 15.0,4.0
# From MPC114609
298P/Christensen,e,7.8707,52.8212,100.6373,3.590328,0.1448781,0.38627287,111.9942,10/19.0/2022,2000,g 15.0,4.0
# From MPEC 2022-CN4
299P/Catalina-PANSTARRS,e,10.4683,271.6086,323.7854,4.387758,0.1072359,0.28095643,299.9584,10/19.0/2022,2000,g 11.5,4.0
# From MPEC 2022-ED3
300P/Catalina,e,5.6739,95.6271,222.9444,2.699073,0.2222706,0.69170882,321.3011,10/19.0/2022,2000,g 16.0,4.0
# From MPC 89014
301P/LINEAR-NEAT,e,10.3392,351.1736,193.5837,5.740235,0.0716654,0.58533309,213.5720,10/19.0/2022,2000,g 13.0,4.0
# From MPEC 2022-K19
302P/Lemmon-PANSTARRS,e,6.0335,121.7376,208.4398,4.273602,0.1115611,0.23028840,262.7966,10/19.0/2022,2000,g 12.5,4.0
# From MPC 92278
303P/NEAT,e,7.0208,347.9691,356.9668,5.044337,0.0869957,0.51092186,253.9419,10/19.0/2022,2000,g 13.5,4.0
# From MPEC 2022-K19
304P/Ory,e,2.6073,58.9098,335.2577,3.150738,0.1762324,0.60087824,140.4914,10/19.0/2022,2000,g 16.5,4.0
# From MPC101100
305P/Skiff,e,11.6653,240.1020,147.3557,4.640848,0.0985844,0.69391450,285.0654,10/19.0/2022,2000,g 18.0,4.0
# From MPC 92278
306P/LINEAR,e,8.3100,341.3739,0.8800,3.124015,0.1784985,0.59321166,178.4654,10/19.0/2022,2000,g 19.0,4.0
# From MPC 92278
307P/LINEAR,e,4.4355,158.1668,222.1513,5.789989,0.0707436,0.67547295,201.9796,10/19.0/2022,2000,g 15.0,4.0
# From MPEC 2022-C56
308P/Lagerkvist-Carsenty,e,4.8539,63.0456,333.6448,6.600220,0.0581255,0.36446209,158.0277,10/19.0/2022,2000,g 13.0,2.0
# From MPC 94284
309P/LINEAR,e,17.0237,10.1462,49.9407,4.372835,0.1077853,0.61812507,303.1824,10/19.0/2022,2000,g 15.0,4.0
# From MPEC 2022-QD9
310P/Hill,e,13.1279,8.9204,31.7540,4.181705,0.1152588,0.42231143,317.3348,10/19.0/2022,2000,g 13.5,4.0
# From MPEC 2021-BE3
311P/PANSTARRS,e,4.9701,279.2124,144.5199,2.188151,0.3045007,0.11586955,225.8063,10/19.0/2022,2000,g 17.0,4.0
# From MPEC 2021-BE3
312P/NEAT,e,19.7655,144.6712,207.6384,3.469171,0.1525336,0.42778306,114.9796,10/19.0/2022,2000,g 16.0,4.0
# From MPEC 2021-S45
313P/Gibbs,e,10.9793,105.9605,254.8308,3.163919,0.1751322,0.23499599,160.4185,10/19.0/2022,2000,g 15.0,4.0
# From MPC105243
314P/Montani,e,3.9848,267.6060,213.9544,7.259472,0.0503903,0.41657701,110.9874,10/19.0/2022,2000,g  9.5,4.0
# From MPEC 2021-N06
315P/LONEOS,e,17.7373,68.7874,65.7362,4.940063,0.0897647,0.52096875,193.3430,10/19.0/2022,2000,g 11.0,4.0
# From MPC 92279
316P/LONEOS-Christensen,e,9.8247,246.3214,192.0538,4.380948,0.1074860,0.15588546,278.9865,10/19.0/2022,2000,g 13.5,4.0
# From MPEC 2020-C98
317P/WISE,e,11.9525,275.4864,334.8415,2.962589,0.1932845,0.57052656,145.5542,10/19.0/2022,2000,g 17.5,4.0
# From MPC102103
318P/McNaught-Hartley,e,17.8874,35.5134,313.3093,7.503595,0.0479513,0.67517409,122.2686,10/19.0/2022,2000,g  8.5,6.0
# From MPC 97499
319P/Catalina-McNaught,e,15.0950,111.3628,203.6678,3.565843,0.1463729,0.66660800,29.5067,10/19.0/2022,2000,g 15.0,4.0
# From MPC 96281
320P/McNaught,e,4.9065,295.9439,0.7856,3.094124,0.1810913,0.68536241,115.9006,10/19.0/2022,2000,g 20.5,4.0
# From MPC105243
321P/SOHO,e,20.0894,165.0177,172.7483,2.423278,0.2612758,0.98109592,0.0000,10/26.5788/2023,2000,g 20.0,4.0
# From MPC102103
322P/SOHO,e,11.4669,351.5184,56.8894,2.507701,0.2481936,0.97995497,0.0000,08/21.0834/2023,2000,g 19.0,4.0
# From MPEC 2016-Y36
323P/SOHO,e,5.3267,324.3983,353.0421,2.583236,0.2373876,0.98478274,0.0000,01/17.8399/2021,2000,g 20.0,4.0
# From MPEC 2021-W31
324P/LaSagra,e,21.4041,270.5851,57.5344,3.094467,0.1810612,0.15375423,96.2993,10/19.0/2022,2000,g 13.0,4.0
# From MPEC 2022-TA0
325P/Yang-Gao,e,16.6932,257.5496,343.7343,3.523773,0.1490020,0.59343787,30.3640,10/19.0/2022,2000,g 14.0,4.0
# From MPC103849
326P/Hill,e,2.4711,99.8089,278.6485,4.062529,0.1203676,0.31821305,307.3346,10/19.0/2022,2000,g 13.5,4.0
# From MPEC 2022-TA0
327P/VanNess,e,36.2509,173.9847,185.0286,3.563277,0.1465311,0.56330776,6.8301,10/19.0/2022,2000,g 16.0,4.0
# From MPC109148
328P/LONEOS-Tucker,e,17.6725,341.6297,30.5621,4.191488,0.1148555,0.55269046,285.5870,10/19.0/2022,2000,g 14.5,4.0
# From MPC101101
